[{"OBJECT_NAME":"RISAT-2BR2","OBJECT_ID":"2020-081A","EPOCH":"2026-03-09T12:34:56.452800","MEAN_MOTION":15.01602463,"ECCENTRICITY":0.00109054,"INCLINATION":36.898,"RA_OF_ASC_NODE":95.9121,"ARG_OF_PERICENTER":52.9142,"MEAN_ANOMALY":307.2595,"EPHEMERIS_TYPE":0,"CLASSIFICATION_TYPE":"U","NORAD_CAT_ID":46905,"ELEMENT_SET_NO":999,"REV_AT_EPOCH":29248,"BSTAR":0.00037609291,"MEAN_MOTION_DOT":4.901e-5,"MEAN_MOTION_DDOT":0},{"OBJECT_NAME":"STARLINK-34654","OBJECT_ID":"2025-152S","EPOCH":"2026-03-09T20:00:42.388416","MEAN_MOTION":15.05650765,"ECCENTRICITY":0.00018125,"INCLINATION":97.6015,"RA_OF_ASC_NODE":285.7132,"ARG_OF_PERICENTER":90.5043,"MEAN_ANOMALY":269.6392,"EPHEMERIS_TYPE":0,"CLASSIFICATION_TYPE":"U","NORAD_CAT_ID":64858,"ELEMENT_SET_NO":999,"REV_AT_EPOCH":3544,"BSTAR":0.00020226638,"MEAN_MOTION_DOT":2.859e-5,"MEAN_MOTION_DDOT":0}]
